K13EA8Y 21.4   0.15 K1794 317.97420   21.57198  172.40957    1.62487  0.5213110  0.19764362   2.9188661  7 MPO256854    43   1    5 days 0.30 M-v 38h MPCS       2005          2013 EY108         20130318
K13F09D 20.9   0.15 K1794  18.03694  129.28543   13.56257    7.34084  0.5018700  0.22485719   2.6783348  7 MPO267640    30   1   16 days 0.29 M-v 38h MPCS       2005          2013 FD9           20130404
K13G54Y 14.4   0.15 K1794  20.89148  236.47081    8.73930    8.31299  0.6609647  0.01979038  13.5363010  1 MPO409440    58   2 2013-2014 0.33 M-v 38h MPCLINUX   0000          2013 GY54          20140820
K13G68Q 18.7   0.15 K1794 269.16995   79.28767  196.51474   16.22532  0.5676582  0.17672883   3.1448344  1 MPO278278   109   2 2002-2013 0.35 M-v 38h MPCADO     0005          2013 GQ68          20130713
K13H00A 16.6   0.15 K1794 161.14969  152.38126   42.71844   16.84434  0.6236676  0.10216250   4.5318449  3 MPO266949    79   1  155 days 0.48 M-v 38h MPCADO     2000          2013 HA            20130622
K13HF0S 16.9   0.15 K1794   1.95012  335.39734  202.49283   97.40783  0.9686334  0.00115883  89.7685177  4 MPO269954    20   1   10 days 0.08 M-v 38h MPCW       2011          2013 HS150         20130419
K13J04D 16.5   0.15 K1794  39.30568  295.99149  226.42027   73.02181  0.8673936  0.02302048  12.2384511  5 MPO263226   104   1   32 days 0.45 M-v 38h MPCADO     2005          2013 JD4           20130604
K13J17N 19.7   0.15 K1794 281.41730  125.85654   73.12581    8.33553  0.5125508  0.17215084   3.2003437  3 MPO263242    20   1   52 days 0.15 M-v 38h MPCADO     2005          2013 JN17          20130602
K13L02A 16.9   0.15 K1794 125.15404  325.04041  243.87594  175.09510  0.4668033  0.07278604   5.6811638  6 MPO266958    43   1   25 days 0.34 M-v 38h MPCADO     2000          2013 LA2           20130626
K13L16D 16.1   0.15 K1794   1.97541  186.14799   25.78263  154.75284  0.9679087  0.00139074  79.4885413  0 MPO288535    54   2 2013-2014 0.38 M-v 38h MPCADO     0011          2013 LD16          20140223
K13L29G 14.9   0.15 K1794  20.72566  201.98630   66.74401   15.40098  0.7904131  0.01414768  16.9308703  1 MPO317790    37   2 2013-2014 0.25 M-v 38h MPCW       0000          2013 LG29          20140920
K13N11S 13.6   0.15 K1794  23.49376  167.70746  250.70206  130.34073  0.7868977  0.02188015  12.6600634  0 MPO369186   254   3 2013-2015 0.40 M-v 38h MPCADO     0000          2013 NS11          20150121
K13N15F 21.9   0.15 K1794 145.93781  246.44881   32.19393    1.91453  0.7081007  0.09477175   4.7644939  7 MPO265951     8   1    1 days 0.16 M-v 3Eh MPCK       2005          2013 NF15          20130715
K13O05P 20.1   0.15 K1794 252.87752  343.01748  340.53097    6.66193  0.5860468  0.17046762   3.2213763  4 MPO277238    83   1   75 days 0.38 M-v 38h MPCADO     2005          2013 OP5           20131012
K13P37Q 15.7   0.15 K1794  94.42328  176.60720  183.27963   29.92149  0.5506152  0.06728759   5.9865884  3 MPO277240    38   1   85 days 0.35 M-v 38h MPCADO     2000          2013 PQ37          20131104
K13P44J 14.5   0.15 K1794  44.91063  312.36466  316.79969   21.47385  0.6769754  0.02341571  12.1003485  4 MPO270087    30   1   32 days 0.24 M-v 38h MPCADO     2000          2013 PJ44          20130913
K13Q16D 19.4   0.15 K1794 301.04814  194.15048  173.12354    2.93350  0.5338833  0.20937718   2.8087720  4 MPO285774   102   1  101 days 0.36 M-v 38h MPCADO     2005          2013 QD16          20131207
K13R80C 16.9   0.15 K1794 243.28356  256.92546  176.54414   15.11661  0.5070416  0.18681837   3.0305608  1 MPO288536    63   2 2008-2014 0.36 M-v 38h MPCADO     0005          2013 RC80          20140222
K13R80W 17.7   0.15 K1794 275.55057  316.00466    2.98138   28.76237  0.5205871  0.18370784   3.0646738  4 MPO277254    94   1   53 days 0.44 M-v 38h MPCADO     2005          2013 RW80          20131106
K13T04T 20.2   0.15 K1794 261.82524  274.85405   90.95465    9.49382  0.5471224  0.18341423   3.0679435  8 MPO278282    21   1    3 days 0.24 M-v 38h MPCADO     2005          2013 TT4           20131006
K13T69G 20.8   0.15 K1794 224.80040   31.64370    9.86129    8.10238  0.6111767  0.16060372   3.3519613  5 MPO277274    77   1   36 days 0.23 M-v 38h MPCADO     2005          2013 TG69          20131110
K13T80A 18.7   0.15 K1794 167.57920  347.88709   25.55880   35.27547  0.5796922  0.11564164   4.1724700  5 MPO278285    43   1   35 days 0.36 M-v 38h MPCADO     2000          2013 TA80          20131112
K13TD2T 21.7   0.15 K1794 293.01681  213.89165  171.82338    9.27110  0.5169084  0.20806280   2.8205887  4 MPO277281    28   1   22 days 0.24 M-v 38h MPCADO     2005          2013 TT132         20131101
K13TD5D 19.5   0.15 K1794 299.59597  336.55980   71.07250   11.96052  0.5107482  0.21582506   2.7525473  4 MPO281957    87   1   80 days 0.43 M-v 38h MPCW       2005          2013 TD135         20131231
K13TD5K 20.0   0.15 K1794 273.76241  304.97110   44.45311   17.58407  0.5408716  0.18761541   3.0219716  4 MPO278286    40   1   44 days 0.34 M-v 38h MPCADO     2005          2013 TK135         20131125
K13U08X 20.3   0.15 K1794 276.93731  326.39588   32.74836   18.82906  0.5177432  0.19330203   2.9624096  6 MPO275423    35   1   12 days 0.24 M-v 38h MPCADO     2005          2013 UX8           20131108
K13V09X 15.9   0.15 K1794 145.63644  310.98935   92.26239   35.37776  0.5650894  0.10281367   4.5126897  2 MPO288537   129   1  113 days 0.41 M-v 38h MPCW       2000          2013 VX9           20140225
K13V17B 18.3   0.15 K1794 103.28982  353.72838   92.43688   12.99493  0.7102728  0.07743687   5.4513513  3 MPO285784   100   1   76 days 0.48 M-v 38h MPCADO     2005          2013 VB17          20140123
K13W64K 15.7   0.15 K1794  58.88038  353.53052   99.61144   62.50978  0.6285101  0.04414428   7.9290244  3 MPO300683    28   1   91 days 0.23 M-v 38h MPCADO     2000          2013 WK64          20140227
K13W67X 20.3   0.15 K1794 246.01782   30.40042   70.04386   33.17675  0.5296437  0.18331375   3.0690645  6 MPO278170    17   1    8 days 0.40 M-v 38h MPCADO     2005          2013 WX67          20131205
K13Y48F 14.0   0.15 K1794  37.56059   34.44944   33.16557   77.57416  0.5221883  0.03488225   9.2768333  3 MPO279495    21   1   67 days 0.29 M-v 38h MPCS       2000          2013 YF48          20131231
K13Y48G 17.2   0.15 K1794  53.45076   22.30788  123.06958   61.30678  0.7525993  0.04200162   8.1964419  4 MPO288541    72   1   58 days 0.43 M-v 38h MPCADO     2000          2013 YG48          20140224
K14A16H 18.3   0.15 K1794 183.85107   53.29845   86.45472   11.00387  0.5150706  0.14335138   3.6157755  2 MPO289944    40   2 2001-2014 0.27 M-v 38h MPCS       0000          2014 AH16          20140224
K14A17E 20.3   0.15 K1794 223.64664  117.79731  314.51476   14.24588  0.5731208  0.16116281   3.3442046  6 MPO285804    16   1   20 days 0.31 M-v 38h MPCADO     2005          2014 AE17          20140124
K14A52Z 18.4   0.15 K1794 218.79291   17.69678  121.94826   18.70654  0.5604660  0.16102302   3.3461397  4 MPO292219    53   1   88 days 0.47 M-v 38h MPCADO     2005          2014 AZ52          20140407
K14B31P 17.3   0.15 K1794 217.19956  263.57085  307.41913   12.13168  0.5241877  0.18304936   3.0720190  2 MPO311391   157   2 1997-2014 0.41 M-v 38h MPCADO     0005          2014 BP31          20140531
K14C14W 14.2   0.15 K1794   5.39621   80.73977  181.79413  170.77315  0.8667252  0.00534401  32.4009417  4 MPO292224    38   1   51 days 0.31 M-v 38h MPCADO     2000          2014 CW14          20140402
K14D02W 18.4   0.15 K1794 246.66998  186.90238   11.26584   17.33293  0.5152888  0.20285959   2.8686156  3 MPO294917   136   1  104 days 0.36 M-v 38h MPCADO     2005          2014 DW2           20140504
K14D09W 14.7   0.15 K1794  56.43106  235.18048  290.69005   16.07282  0.5003796  0.04821726   7.4759729  5 MPO290124    28   1   38 days 0.25 M-v 38h MPCS       2000          2014 DW9           20140330
K14F00V 20.2   0.15 K1794 291.01648  340.22516  170.82567   26.27419  0.5117951  0.22603682   2.6690083  6 MPO290386    29   1   10 days 0.18 M-v 38h MPCADO     2005          2014 FV            20140330
K14F33J 18.1   0.15 K1794 240.84773  270.92797  355.26662   11.48892  0.5036616  0.22355181   2.6887511  2 MPO317838    51   2 2010-2014 0.28 M-v 38h MPCS       0005          2014 FJ33          20140404
K14F44C 18.2   0.15 K1794 221.34251  309.91971  198.80326   22.59766  0.5365757  0.17093838   3.2154591  4 MPO295918    90   1   52 days 0.35 M-v 38h MPCS       2005          2014 FC44          20140520
K14HH7H 17.4   0.15 K1794 184.40705  279.24800  358.94314   22.01254  0.5092628  0.17674556   3.1446359  2 MPO301864    36   2 2009-2014 0.26 M-v 38h MPCS       0005          2014 HH177         20140622
K14HH8O 20.9   0.15 K1794 247.47379   79.66803   95.64696    9.84695  0.5468815  0.19271188   2.9684544  5 MPO297970    24   1   27 days 0.26 M-v 38h MPCADO     2005          2014 HO178         20140521
K14J57J 12.7   0.15 K1794  89.90537  310.87735  289.43241   95.92705  0.2935817  0.05333903   6.9893905  1 MPO349328    30   3 2007-2015 0.18 M-v 38h MPCADO     0000          2014 JJ57          20150913
K14J57O 18.2   0.15 K1794 260.39111   67.43160  245.98603   13.00382  0.5073028  0.22627972   2.6670979  2 MPO317891   114   1  223 days 0.36 M-v 38h MPCADO     2005          2014 JO57          20141216
K14K00F 19.3   0.15 K1794 236.97121  213.25118   77.70053   24.87631  0.5159950  0.21646852   2.7470900  2 MPO298823    34   2 2005-2014 0.51 M-v 38h MPCW       0005          2014 KF            20140702
K14K02G 17.6   0.15 K1794  69.81197  296.56217  344.33171   24.12676  0.7855648  0.05839279   6.5800609  1 MPO315291   128   1  163 days 0.27 M-v 38h MPCADO     2005          2014 KG2           20141028
K14L21W 18.4   0.15 K1794 194.58957  129.76938  155.04428    8.25520  0.6121723  0.16027191   3.3565859  1 MPO315291    42   2 2008-2014 0.26 M-v 38h MPCADO     0005          2014 LW21          20141014
